{
  "type": "FeatureCollection",
  "features": [
    {
      "type": "Feature",
      "properties": {
        "norad_id": 66570,
        "name": "STARLINK-35834",
        "group": "last-30-days",
        "lat": 8.444630910634933,
        "lon": -73.35038060936344,
        "alt_km": 414.23034563856163,
        "timestamp": "2025-12-13T15:35:10.876228+00:00",
        "meta_object_name": "STARLINK-35834",
        "meta_object_id": "2025-268P",
        "meta_epoch": "2025-12-12T20:00:01.999872",
        "meta_mean_motion": 15.50649758,
        "meta_eccentricity": 0.0001444,
        "meta_inclination": 43.0002,
        "meta_ra_of_asc_node": 120.5913,
        "meta_arg_of_pericenter": 260.297,
        "meta_mean_anomaly": 26.4566,
        "meta_ephemeris_type": 0,
        "meta_classification_type": "U",
        "meta_norad_cat_id": 66570,
        "meta_element_set_no": 999,
        "meta_rev_at_epoch": 468,
        "meta_bstar": -0.0023172141,
        "meta_mean_motion_dot": -0.00134314,
        "meta_mean_motion_ddot": 0,
        "tle_line1": "1 66570U 25268P   25346.83335648 -.00134314  00000+0 -23172-2 0  9991",
        "tle_line2": "2 66570  43.0002 120.5913 0001444 260.2970  26.4566 15.50649758  4682"
      },
      "geometry": {
        "type": "Point",
        "coordinates": [
          -73.35038060936344,
          8.444630910634933
        ]
      }
    },
    {
      "type": "Feature",
      "properties": {
        "norad_id": 66571,
        "name": "STARLINK-35836",
        "group": "last-30-days",
        "lat": 7.107366485452052,
        "lon": -71.87748674547446,
        "alt_km": 414.6046579403419,
        "timestamp": "2025-12-13T15:35:10.876240+00:00",
        "meta_object_name": "STARLINK-35836",
        "meta_object_id": "2025-268Q",
        "meta_epoch": "2025-12-12T20:00:01.999872",
        "meta_mean_motion": 15.50592722,
        "meta_eccentricity": 0.00017082,
        "meta_inclination": 43.0002,
        "meta_ra_of_asc_node": 120.5864,
        "meta_arg_of_pericenter": 283.1071,
        "meta_mean_anomaly": 5.591,
        "meta_ephemeris_type": 0,
        "meta_classification_type": "U",
        "meta_norad_cat_id": 66571,
        "meta_element_set_no": 999,
        "meta_rev_at_epoch": 468,
        "meta_bstar": -0.00085406017,
        "meta_mean_motion_dot": -0.00050151,
        "meta_mean_motion_ddot": 0,
        "tle_line1": "1 66571U 25268Q   25346.83335648 -.00050151  00000+0 -85406-3 0  9997",
        "tle_line2": "2 66571  43.0002 120.5864 0001708 283.1071   5.5910 15.50592722  4686"
      },
      "geometry": {
        "type": "Point",
        "coordinates": [
          -71.87748674547446,
          7.107366485452052
        ]
      }
    },
    {
      "type": "Feature",
      "properties": {
        "norad_id": 66572,
        "name": "STARLINK-35870",
        "group": "last-30-days",
        "lat": 5.83274589421175,
        "lon": -70.48520720550822,
        "alt_km": 414.65322064988413,
        "timestamp": "2025-12-13T15:35:10.876250+00:00",
        "meta_object_name": "STARLINK-35870",
        "meta_object_id": "2025-268R",
        "meta_epoch": "2025-12-12T20:00:01.999872",
        "meta_mean_motion": 15.50613092,
        "meta_eccentricity": 0.00016071,
        "meta_inclination": 43.0002,
        "meta_ra_of_asc_node": 120.5827,
        "meta_arg_of_pericenter": 272.0893,
        "meta_mean_anomaly": 18.5258,
        "meta_ephemeris_type": 0,
        "meta_classification_type": "U",
        "meta_norad_cat_id": 66572,
        "meta_element_set_no": 999,
        "meta_rev_at_epoch": 468,
        "meta_bstar": -0.0015162117,
        "meta_mean_motion_dot": -0.00088402,
        "meta_mean_motion_ddot": 0,
        "tle_line1": "1 66572U 25268R   25346.83335648 -.00088402  00000+0 -15162-2 0  9999",
        "tle_line2": "2 66572  43.0002 120.5827 0001607 272.0893  18.5258 15.50613092  4686"
      },
      "geometry": {
        "type": "Point",
        "coordinates": [
          -70.48520720550822,
          5.83274589421175
        ]
      }
    },
    {
      "type": "Feature",
      "properties": {
        "norad_id": 66573,
        "name": "STARLINK-35650",
        "group": "last-30-days",
        "lat": 4.396270062730884,
        "lon": -68.93046746978773,
        "alt_km": 414.21536452389137,
        "timestamp": "2025-12-13T15:35:10.876261+00:00",
        "meta_object_name": "STARLINK-35650",
        "meta_object_id": "2025-268S",
        "meta_epoch": "2025-12-12T20:00:01.999872",
        "meta_mean_motion": 15.50494369,
        "meta_eccentricity": 0.00014639,
        "meta_inclination": 43.0002,
        "meta_ra_of_asc_node": 120.5766,
        "meta_arg_of_pericenter": 278.9023,
        "meta_mean_anomaly": 13.6688,
        "meta_ephemeris_type": 0,
        "meta_classification_type": "U",
        "meta_norad_cat_id": 66573,
        "meta_element_set_no": 999,
        "meta_rev_at_epoch": 468,
        "meta_bstar": 0.0020870866,
        "meta_mean_motion_dot": 0.00123677,
        "meta_mean_motion_ddot": 0,
        "tle_line1": "1 66573U 25268S   25346.83335648  .00123677  00000+0  20871-2 0  9995",
        "tle_line2": "2 66573  43.0002 120.5766 0001463 278.9023  13.6688 15.50494369  4686"
      },
      "geometry": {
        "type": "Point",
        "coordinates": [
          -68.93046746978773,
          4.396270062730884
        ]
      }
    },
    {
      "type": "Feature",
      "properties": {
        "norad_id": 66574,
        "name": "STARLINK-35812",
        "group": "last-30-days",
        "lat": 3.229255463952291,
        "lon": -67.6740635884515,
        "alt_km": 414.94159813173155,
        "timestamp": "2025-12-13T15:35:10.876275+00:00",
        "meta_object_name": "STARLINK-35812",
        "meta_object_id": "2025-268T",
        "meta_epoch": "2025-12-12T20:00:01.999872",
        "meta_mean_motion": 15.50625026,
        "meta_eccentricity": 0.00014264,
        "meta_inclination": 43.0003,
        "meta_ra_of_asc_node": 120.5714,
        "meta_arg_of_pericenter": 272.467,
        "meta_mean_anomaly": 21.9696,
        "meta_ephemeris_type": 0,
        "meta_classification_type": "U",
        "meta_norad_cat_id": 66574,
        "meta_element_set_no": 999,
        "meta_rev_at_epoch": 468,
        "meta_bstar": -0.0017022193,
        "meta_mean_motion_dot": -0.0009911,
        "meta_mean_motion_ddot": 0,
        "tle_line1": "1 66574U 25268T   25346.83335648 -.00099110  00000+0 -17022-2 0  9996",
        "tle_line2": "2 66574  43.0003 120.5714 0001426 272.4670  21.9696 15.50625026  4684"
      },
      "geometry": {
        "type": "Point",
        "coordinates": [
          -67.6740635884515,
          3.229255463952291
        ]
      }
    },
    {
      "type": "Feature",
      "properties": {
        "norad_id": 66575,
        "name": "STARLINK-35810",
        "group": "last-30-days",
        "lat": 1.9007049689247533,
        "lon": -66.2477163693226,
        "alt_km": 415.22536007411145,
        "timestamp": "2025-12-13T15:35:10.876285+00:00",
        "meta_object_name": "STARLINK-35810",
        "meta_object_id": "2025-268U",
        "meta_epoch": "2025-12-12T20:00:01.999872",
        "meta_mean_motion": 15.5059521,
        "meta_eccentricity": 0.00015191,
        "meta_inclination": 43.0002,
        "meta_ra_of_asc_node": 120.5675,
        "meta_arg_of_pericenter": 287.5356,
        "meta_mean_anomaly": 8.8288,
        "meta_ephemeris_type": 0,
        "meta_classification_type": "U",
        "meta_norad_cat_id": 66575,
        "meta_element_set_no": 999,
        "meta_rev_at_epoch": 468,
        "meta_bstar": -0.00091983174,
        "meta_mean_motion_dot": -0.00053964,
        "meta_mean_motion_ddot": 0,
        "tle_line1": "1 66575U 25268U   25346.83335648 -.00053964  00000+0 -91983-3 0  9993",
        "tle_line2": "2 66575  43.0002 120.5675 0001519 287.5356   8.8288 15.50595210  4683"
      },
      "geometry": {
        "type": "Point",
        "coordinates": [
          -66.2477163693226,
          1.9007049689247533
        ]
      }
    },
    {
      "type": "Feature",
      "properties": {
        "norad_id": 66576,
        "name": "STARLINK-35814",
        "group": "last-30-days",
        "lat": 0.6195047835924993,
        "lon": -64.87691769736493,
        "alt_km": 415.2390864035715,
        "timestamp": "2025-12-13T15:35:10.876295+00:00",
        "meta_object_name": "STARLINK-35814",
        "meta_object_id": "2025-268V",
        "meta_epoch": "2025-12-12T20:00:01.999872",
        "meta_mean_motion": 15.50628497,
        "meta_eccentricity": 0.00013959,
        "meta_inclination": 43.0003,
        "meta_ra_of_asc_node": 120.5622,
        "meta_arg_of_pericenter": 272.7361,
        "meta_mean_anomaly": 25.5307,
        "meta_ephemeris_type": 0,
        "meta_classification_type": "U",
        "meta_norad_cat_id": 66576,
        "meta_element_set_no": 999,
        "meta_rev_at_epoch": 468,
        "meta_bstar": -0.0017754638,
        "meta_mean_motion_dot": -0.00103318,
        "meta_mean_motion_ddot": 0,
        "tle_line1": "1 66576U 25268V   25346.83335648 -.00103318  00000+0 -17755-2 0  9997",
        "tle_line2": "2 66576  43.0003 120.5622 0001395 272.7361  25.5307 15.50628497  4683"
      },
      "geometry": {
        "type": "Point",
        "coordinates": [
          -64.87691769736493,
          0.6195047835924993
        ]
      }
    }
  ]
}